ORBCOMM FM16            
1 25417U 98046E   26066.17483656  .00001562  00000+0  53803-3 0  9991
2 25417  44.9950   3.0876 0003136 204.0372 156.0331 14.39825685442142
ORBCOMM FM15            
1 25418U 98046F   26065.94053170  .00000696  00000+0  26678-3 0  9997
2 25418  44.9983  10.1567 0002911 207.0570 153.0127 14.39446352442092
ORBCOMM FM14            
1 25419U 98046G   26066.16315685  .00001530  00000+0  52740-3 0  9992
2 25419  44.9969   6.5046 0001686 214.4634 145.6106 14.39886440442101
ORBCOMM FM13            
1 25420U 98046H   26065.82733826  .00001567  00000+0  55494-3 0  9996
2 25420  44.9987  18.8166 0003322 172.3828 187.7071 14.38440119441046
ORBCOMM FM21            
1 25475U 98053A   26066.11086534  .00001145  00000+0  42163-3 0  9995
2 25475  45.0075 103.7637 0001163 233.1334 126.9407 14.38008984435087
ORBCOMM FM22            
1 25476U 98053B   26066.14942729  .00001270  00000+0  45132-3 0  9994
2 25476  45.0067  96.1298 0001216 149.5874 210.5046 14.39232944435147
ORBCOMM FM23            
1 25477U 98053C   26066.14075137  .00001147  00000+0  42019-3 0  9999
2 25477  45.0074 105.2987 0000756 177.2407 182.8446 14.38269060435245
ORBCOMM FM24            
1 25478U 98053D   26066.10737021  .00001233  00000+0  44234-3 0  9990
2 25478  45.0071 101.7091 0001009 198.0164 162.0649 14.38916167435302
ORBCOMM FM25            
1 25479U 98053E   26066.15375499  .00001158  00000+0  41859-3 0  9999
2 25479  45.0061  99.8023 0002994 154.5986 205.5010 14.38877837435605
ORBCOMM FM26            
1 25480U 98053F   26066.13966728  .00000985  00000+0  37045-3 0  9999
2 25480  45.0062  98.3397 0005239 162.4533 197.6497 14.37813684435482
ORBCOMM FM27            
1 25481U 98053G   26066.06567850  .00001288  00000+0  45998-3 0  9998
2 25481  45.0048 100.3179 0001845 251.6550 108.4098 14.38922432435523
ORBCOMM FM28            
1 25482U 98053H   26065.10462831  .00001184  00000+0  42572-3 0  9996
2 25482  45.0062  42.0860 0003727 203.4868 156.5811 14.39015851436074
ORBCOMM FM30            
1 25980U 99065A   26066.03029820  .00000956  00000+0  36007-3 0  9995
2 25980  45.0313 284.9571 0005859 248.4773 111.5451 14.37974189372272
ORBCOMM FM31            
1 25981U 99065B   26066.01630857  .00000935  00000+0  35357-3 0  9996
2 25981  45.0223 278.4650 0003474 277.3759  82.6694 14.37896957371828
ORBCOMM FM32            
1 25982U 99065C   26066.02719958  .00000999  00000+0  38156-3 0  9998
2 25982  45.0158 296.7427 0005766 273.3060  86.7129 14.36959642372399
ORBCOMM FM33            
1 25983U 99065D   26065.55084166  .00001475  00000+0  50090-3 0  9993
2 25983  45.0274 190.8680 0008248 293.4358  66.5624 14.40779686373890
ORBCOMM FM36            
1 25984U 99065E   26065.99063500  .00001284  00000+0  45843-3 0  9999
2 25984  45.0390 284.6673 0002602 172.2692 187.8198 14.38973450372262
