[{"OBJECT_NAME":"ORBCOMM FM16","OBJECT_ID":"1998-046E","EPOCH":"2026-03-07T04:11:45.878784","MEAN_MOTION":14.39825685,"ECCENTRICITY":0.0003136,"INCLINATION":44.995,"RA_OF_ASC_NODE":3.0876,"ARG_OF_PERICENTER":204.0372,"MEAN_ANOMALY":156.0331,"EPHEMERIS_TYPE":0,"CLASSIFICATION_TYPE":"U","NORAD_CAT_ID":25417,"ELEMENT_SET_NO":999,"REV_AT_EPOCH":44214,"BSTAR":0.00053803,"MEAN_MOTION_DOT":1.562e-5,"MEAN_MOTION_DDOT":0},{"OBJECT_NAME":"ORBCOMM FM15","OBJECT_ID":"1998-046F","EPOCH":"2026-03-06T22:34:21.938880","MEAN_MOTION":14.39446352,"ECCENTRICITY":0.0002911,"INCLINATION":44.9983,"RA_OF_ASC_NODE":10.1567,"ARG_OF_PERICENTER":207.057,"MEAN_ANOMALY":153.0127,"EPHEMERIS_TYPE":0,"CLASSIFICATION_TYPE":"U","NORAD_CAT_ID":25418,"ELEMENT_SET_NO":999,"REV_AT_EPOCH":44209,"BSTAR":0.00026678,"MEAN_MOTION_DOT":6.96e-6,"MEAN_MOTION_DDOT":0},{"OBJECT_NAME":"ORBCOMM FM14","OBJECT_ID":"1998-046G","EPOCH":"2026-03-07T03:54:56.751840","MEAN_MOTION":14.3988644,"ECCENTRICITY":0.0001686,"INCLINATION":44.9969,"RA_OF_ASC_NODE":6.5046,"ARG_OF_PERICENTER":214.4634,"MEAN_ANOMALY":145.6106,"EPHEMERIS_TYPE":0,"CLASSIFICATION_TYPE":"U","NORAD_CAT_ID":25419,"ELEMENT_SET_NO":999,"REV_AT_EPOCH":44210,"BSTAR":0.0005274,"MEAN_MOTION_DOT":1.53e-5,"MEAN_MOTION_DDOT":0},{"OBJECT_NAME":"ORBCOMM FM13","OBJECT_ID":"1998-046H","EPOCH":"2026-03-06T19:51:22.025664","MEAN_MOTION":14.38440119,"ECCENTRICITY":0.0003322,"INCLINATION":44.9987,"RA_OF_ASC_NODE":18.8166,"ARG_OF_PERICENTER":172.3828,"MEAN_ANOMALY":187.7071,"EPHEMERIS_TYPE":0,"CLASSIFICATION_TYPE":"U","NORAD_CAT_ID":25420,"ELEMENT_SET_NO":999,"REV_AT_EPOCH":44104,"BSTAR":0.00055494,"MEAN_MOTION_DOT":1.567e-5,"MEAN_MOTION_DDOT":0},{"OBJECT_NAME":"ORBCOMM FM21","OBJECT_ID":"1998-053A","EPOCH":"2026-03-07T02:39:38.765376","MEAN_MOTION":14.38008984,"ECCENTRICITY":0.0001163,"INCLINATION":45.0075,"RA_OF_ASC_NODE":103.7637,"ARG_OF_PERICENTER":233.1334,"MEAN_ANOMALY":126.9407,"EPHEMERIS_TYPE":0,"CLASSIFICATION_TYPE":"U","NORAD_CAT_ID":25475,"ELEMENT_SET_NO":999,"REV_AT_EPOCH":43508,"BSTAR":0.00042163,"MEAN_MOTION_DOT":1.145e-5,"MEAN_MOTION_DDOT":0},{"OBJECT_NAME":"ORBCOMM FM22","OBJECT_ID":"1998-053B","EPOCH":"2026-03-07T03:35:10.517856","MEAN_MOTION":14.39232944,"ECCENTRICITY":0.0001216,"INCLINATION":45.0067,"RA_OF_ASC_NODE":96.1298,"ARG_OF_PERICENTER":149.5874,"MEAN_ANOMALY":210.5046,"EPHEMERIS_TYPE":0,"CLASSIFICATION_TYPE":"U","NORAD_CAT_ID":25476,"ELEMENT_SET_NO":999,"REV_AT_EPOCH":43514,"BSTAR":0.00045132,"MEAN_MOTION_DOT":1.27e-5,"MEAN_MOTION_DDOT":0},{"OBJECT_NAME":"ORBCOMM FM23","OBJECT_ID":"1998-053C","EPOCH":"2026-03-07T03:22:40.918368","MEAN_MOTION":14.3826906,"ECCENTRICITY":7.56e-5,"INCLINATION":45.0074,"RA_OF_ASC_NODE":105.2987,"ARG_OF_PERICENTER":177.2407,"MEAN_ANOMALY":182.8446,"EPHEMERIS_TYPE":0,"CLASSIFICATION_TYPE":"U","NORAD_CAT_ID":25477,"ELEMENT_SET_NO":999,"REV_AT_EPOCH":43524,"BSTAR":0.00042019,"MEAN_MOTION_DOT":1.147e-5,"MEAN_MOTION_DDOT":0},{"OBJECT_NAME":"ORBCOMM FM24","OBJECT_ID":"1998-053D","EPOCH":"2026-03-07T02:34:36.786144","MEAN_MOTION":14.38916167,"ECCENTRICITY":0.0001009,"INCLINATION":45.0071,"RA_OF_ASC_NODE":101.7091,"ARG_OF_PERICENTER":198.0164,"MEAN_ANOMALY":162.0649,"EPHEMERIS_TYPE":0,"CLASSIFICATION_TYPE":"U","NORAD_CAT_ID":25478,"ELEMENT_SET_NO":999,"REV_AT_EPOCH":43530,"BSTAR":0.00044234,"MEAN_MOTION_DOT":1.233e-5,"MEAN_MOTION_DDOT":0},{"OBJECT_NAME":"ORBCOMM FM25","OBJECT_ID":"1998-053E","EPOCH":"2026-03-07T03:41:24.431136","MEAN_MOTION":14.38877837,"ECCENTRICITY":0.0002994,"INCLINATION":45.0061,"RA_OF_ASC_NODE":99.8023,"ARG_OF_PERICENTER":154.5986,"MEAN_ANOMALY":205.501,"EPHEMERIS_TYPE":0,"CLASSIFICATION_TYPE":"U","NORAD_CAT_ID":25479,"ELEMENT_SET_NO":999,"REV_AT_EPOCH":43560,"BSTAR":0.00041859,"MEAN_MOTION_DOT":1.158e-5,"MEAN_MOTION_DDOT":0},{"OBJECT_NAME":"ORBCOMM FM26","OBJECT_ID":"1998-053F","EPOCH":"2026-03-07T03:21:07.252992","MEAN_MOTION":14.37813684,"ECCENTRICITY":0.0005239,"INCLINATION":45.0062,"RA_OF_ASC_NODE":98.3397,"ARG_OF_PERICENTER":162.4533,"MEAN_ANOMALY":197.6497,"EPHEMERIS_TYPE":0,"CLASSIFICATION_TYPE":"U","NORAD_CAT_ID":25480,"ELEMENT_SET_NO":999,"REV_AT_EPOCH":43548,"BSTAR":0.00037045,"MEAN_MOTION_DOT":9.85e-6,"MEAN_MOTION_DDOT":0},{"OBJECT_NAME":"ORBCOMM FM27","OBJECT_ID":"1998-053G","EPOCH":"2026-03-07T01:34:34.622400","MEAN_MOTION":14.38922432,"ECCENTRICITY":0.0001845,"INCLINATION":45.0048,"RA_OF_ASC_NODE":100.3179,"ARG_OF_PERICENTER":251.655,"MEAN_ANOMALY":108.4098,"EPHEMERIS_TYPE":0,"CLASSIFICATION_TYPE":"U","NORAD_CAT_ID":25481,"ELEMENT_SET_NO":999,"REV_AT_EPOCH":43552,"BSTAR":0.00045998,"MEAN_MOTION_DOT":1.288e-5,"MEAN_MOTION_DDOT":0},{"OBJECT_NAME":"ORBCOMM FM28","OBJECT_ID":"1998-053H","EPOCH":"2026-03-06T02:30:39.885984","MEAN_MOTION":14.39015851,"ECCENTRICITY":0.00037272,"INCLINATION":45.0062,"RA_OF_ASC_NODE":42.086,"ARG_OF_PERICENTER":203.4868,"MEAN_ANOMALY":156.5811,"EPHEMERIS_TYPE":0,"CLASSIFICATION_TYPE":"U","NORAD_CAT_ID":25482,"ELEMENT_SET_NO":999,"REV_AT_EPOCH":43607,"BSTAR":0.00042572118,"MEAN_MOTION_DOT":1.184e-5,"MEAN_MOTION_DDOT":0},{"OBJECT_NAME":"ORBCOMM FM30","OBJECT_ID":"1999-065A","EPOCH":"2026-03-07T00:43:37.764480","MEAN_MOTION":14.37974189,"ECCENTRICITY":0.0005859,"INCLINATION":45.0313,"RA_OF_ASC_NODE":284.9571,"ARG_OF_PERICENTER":248.4773,"MEAN_ANOMALY":111.5451,"EPHEMERIS_TYPE":0,"CLASSIFICATION_TYPE":"U","NORAD_CAT_ID":25980,"ELEMENT_SET_NO":999,"REV_AT_EPOCH":37227,"BSTAR":0.00036007,"MEAN_MOTION_DOT":9.56e-6,"MEAN_MOTION_DDOT":0},{"OBJECT_NAME":"ORBCOMM FM31","OBJECT_ID":"1999-065B","EPOCH":"2026-03-07T00:23:29.060448","MEAN_MOTION":14.37896957,"ECCENTRICITY":0.0003474,"INCLINATION":45.0223,"RA_OF_ASC_NODE":278.465,"ARG_OF_PERICENTER":277.3759,"MEAN_ANOMALY":82.6694,"EPHEMERIS_TYPE":0,"CLASSIFICATION_TYPE":"U","NORAD_CAT_ID":25981,"ELEMENT_SET_NO":999,"REV_AT_EPOCH":37182,"BSTAR":0.00035357,"MEAN_MOTION_DOT":9.35e-6,"MEAN_MOTION_DDOT":0},{"OBJECT_NAME":"ORBCOMM FM32","OBJECT_ID":"1999-065C","EPOCH":"2026-03-07T00:39:10.043712","MEAN_MOTION":14.36959642,"ECCENTRICITY":0.0005766,"INCLINATION":45.0158,"RA_OF_ASC_NODE":296.7427,"ARG_OF_PERICENTER":273.306,"MEAN_ANOMALY":86.7129,"EPHEMERIS_TYPE":0,"CLASSIFICATION_TYPE":"U","NORAD_CAT_ID":25982,"ELEMENT_SET_NO":999,"REV_AT_EPOCH":37239,"BSTAR":0.00038156,"MEAN_MOTION_DOT":9.99e-6,"MEAN_MOTION_DDOT":0},{"OBJECT_NAME":"ORBCOMM FM33","OBJECT_ID":"1999-065D","EPOCH":"2026-03-06T13:13:12.719424","MEAN_MOTION":14.40779686,"ECCENTRICITY":0.00082481,"INCLINATION":45.0274,"RA_OF_ASC_NODE":190.868,"ARG_OF_PERICENTER":293.4358,"MEAN_ANOMALY":66.5624,"EPHEMERIS_TYPE":0,"CLASSIFICATION_TYPE":"U","NORAD_CAT_ID":25983,"ELEMENT_SET_NO":999,"REV_AT_EPOCH":37389,"BSTAR":0.00050089534,"MEAN_MOTION_DOT":1.475e-5,"MEAN_MOTION_DDOT":0},{"OBJECT_NAME":"ORBCOMM FM36","OBJECT_ID":"1999-065E","EPOCH":"2026-03-06T23:46:30.864000","MEAN_MOTION":14.3897345,"ECCENTRICITY":0.0002602,"INCLINATION":45.039,"RA_OF_ASC_NODE":284.6673,"ARG_OF_PERICENTER":172.2692,"MEAN_ANOMALY":187.8198,"EPHEMERIS_TYPE":0,"CLASSIFICATION_TYPE":"U","NORAD_CAT_ID":25984,"ELEMENT_SET_NO":999,"REV_AT_EPOCH":37226,"BSTAR":0.00045843,"MEAN_MOTION_DOT":1.284e-5,"MEAN_MOTION_DDOT":0}]
